{
  "norad_id": 67403,
  "name": "SHIJIAN-29B (SJ-29B)",
  "history": [
    {
      "epoch": "2026-04-14T17:59:32.758080Z",
      "apogee_km": 35810.954552983436,
      "perigee_km": 35760.75410490719,
      "latitude_deg": 3.2228689406850006,
      "longitude_deg": 73.49808098679279,
      "height_km": 35796.09676487855,
      "semi_major_axis_km": 42163.99132894531,
      "eccentricity": 0.0005953,
      "inclination_deg": 3.2343,
      "raan_deg": 96.681,
      "arg_perigee_deg": 333.5853,
      "mean_anomaly_deg": 115.9878,
      "mean_motion_rev_day": 1.00274427
    },
    {
      "epoch": "2026-04-15T18:09:40.480128Z",
      "apogee_km": 35810.99046488354,
      "perigee_km": 35760.78154628849,
      "latitude_deg": 3.2194469375177355,
      "longitude_deg": 73.51014376091452,
      "height_km": 35797.34665738128,
      "semi_major_axis_km": 42164.02300558602,
      "eccentricity": 0.0005954,
      "inclination_deg": 3.237,
      "raan_deg": 96.6527,
      "arg_perigee_deg": 334.0266,
      "mean_anomaly_deg": 119.1094,
      "mean_motion_rev_day": 1.00274314
    },
    {
      "epoch": "2026-04-16T16:03:15.524352Z",
      "apogee_km": 35810.967365236764,
      "perigee_km": 35760.85117983723,
      "latitude_deg": 2.851280060944589,
      "longitude_deg": 73.48414729967226,
      "height_km": 35784.378803297725,
      "semi_major_axis_km": 42164.046272537,
      "eccentricity": 0.0005943,
      "inclination_deg": 3.2395,
      "raan_deg": 96.6268,
      "arg_perigee_deg": 334.3954,
      "mean_anomaly_deg": 88.0703,
      "mean_motion_rev_day": 1.00274231
    },
    {
      "epoch": "2026-04-17T21:32:21.598944Z",
      "apogee_km": 35810.896920547646,
      "perigee_km": 35760.950217678685,
      "latitude_deg": 1.8155715714520901,
      "longitude_deg": 73.51902321789404,
      "height_km": 35809.91011666737,
      "semi_major_axis_km": 42164.06056911317,
      "eccentricity": 0.00059229,
      "inclination_deg": 3.243,
      "raan_deg": 96.5934,
      "arg_perigee_deg": 334.7096,
      "mean_anomaly_deg": 171.2873,
      "mean_motion_rev_day": 1.0027418
    },
    {
      "epoch": "2026-04-18T12:32:53.179008Z",
      "apogee_km": 35810.81271548324,
      "perigee_km": 35761.05068160522,
      "latitude_deg": 0.6461949580234373,
      "longitude_deg": 73.49477783382031,
      "height_km": 35765.51649816035,
      "semi_major_axis_km": 42164.06869854424,
      "eccentricity": 0.0005901,
      "inclination_deg": 3.2447,
      "raan_deg": 96.5758,
      "arg_perigee_deg": 334.8712,
      "mean_anomaly_deg": 36.8971,
      "mean_motion_rev_day": 1.00274151
    },
    {
      "epoch": "2026-04-19T18:01:32.149056Z",
      "apogee_km": 35811.032131116146,
      "perigee_km": 35760.67989066254,
      "latitude_deg": 3.2171311271421126,
      "longitude_deg": 73.55728840904088,
      "height_km": 35797.23056444773,
      "semi_major_axis_km": 42163.993010889346,
      "eccentricity": 0.0005971,
      "inclination_deg": 3.2482,
      "raan_deg": 96.541,
      "arg_perigee_deg": 336.4385,
      "mean_anomaly_deg": 118.7508,
      "mean_motion_rev_day": 1.00274421
    },
    {
      "epoch": "2026-04-20T18:04:43.912128Z",
      "apogee_km": 35811.43347660635,
      "perigee_km": 35760.33068548012,
      "latitude_deg": 3.2100502655456986,
      "longitude_deg": 73.57276921826197,
      "height_km": 35797.9552680147,
      "semi_major_axis_km": 42164.01908104323,
      "eccentricity": 0.000606,
      "inclination_deg": 3.2511,
      "raan_deg": 96.5133,
      "arg_perigee_deg": 336.9234,
      "mean_anomaly_deg": 120.0892,
      "mean_motion_rev_day": 1.00274328
    },
    {
      "epoch": "2026-04-21T17:04:53.580000Z",
      "apogee_km": 35811.595329030555,
      "perigee_km": 35760.22265539364,
      "latitude_deg": 3.2136660345060295,
      "longitude_deg": 73.56920421774821,
      "height_km": 35792.39966165899,
      "semi_major_axis_km": 42164.0459922121,
      "eccentricity": 0.0006092,
      "inclination_deg": 3.2538,
      "raan_deg": 96.4872,
      "arg_perigee_deg": 336.6993,
      "mean_anomaly_deg": 106.3324,
      "mean_motion_rev_day": 1.00274232
    },
    {
      "epoch": "2026-04-22T18:14:44.168352Z",
      "apogee_km": 35811.785392489735,
      "perigee_km": 35759.99110387487,
      "latitude_deg": 3.177330477101859,
      "longitude_deg": 73.60280967556956,
      "height_km": 35799.865504502246,
      "semi_major_axis_km": 42164.025248182304,
      "eccentricity": 0.0006142,
      "inclination_deg": 3.2568,
      "raan_deg": 96.4588,
      "arg_perigee_deg": 336.917,
      "mean_anomaly_deg": 124.6472,
      "mean_motion_rev_day": 1.00274306
    },
    {
      "epoch": "2026-04-23T04:23:51.709632Z",
      "apogee_km": 35811.90824524911,
      "perigee_km": 35759.854234890656,
      "latitude_deg": -3.120022469808795,
      "longitude_deg": 73.43791510954644,
      "height_km": 35782.480251682115,
      "semi_major_axis_km": 42164.01824006989,
      "eccentricity": 0.00061728,
      "inclination_deg": 3.258,
      "raan_deg": 96.4478,
      "arg_perigee_deg": 337.0593,
      "mean_anomaly_deg": 277.2182,
      "mean_motion_rev_day": 1.00274331
    },
    {
      "epoch": "2026-04-24T17:22:49.786176Z",
      "apogee_km": 35812.41179742912,
      "perigee_km": 35759.24303829819,
      "latitude_deg": 3.249413894266176,
      "longitude_deg": 73.6166577438784,
      "height_km": 35795.37039497546,
      "semi_major_axis_km": 42163.96441786366,
      "eccentricity": 0.0006305,
      "inclination_deg": 3.2623,
      "raan_deg": 96.4083,
      "arg_perigee_deg": 337.8311,
      "mean_anomaly_deg": 112.7618,
      "mean_motion_rev_day": 1.00274523
    },
    {
      "epoch": "2026-04-25T17:22:54.911424Z",
      "apogee_km": 35812.72531075912,
      "perigee_km": 35758.83982155357,
      "latitude_deg": 3.250477087677438,
      "longitude_deg": 73.62946176750019,
      "height_km": 35795.76112309087,
      "semi_major_axis_km": 42163.91956615634,
      "eccentricity": 0.000639,
      "inclination_deg": 3.265,
      "raan_deg": 96.3836,
      "arg_perigee_deg": 338.1965,
      "mean_anomaly_deg": 113.439,
      "mean_motion_rev_day": 1.00274683
    },
    {
      "epoch": "2026-04-26T23:16:45.584256Z",
      "apogee_km": 35813.1675749838,
      "perigee_km": 35758.29720191645,
      "latitude_deg": -0.06533215166734997,
      "longitude_deg": 73.54252121854911,
      "height_km": 35810.53650521894,
      "semi_major_axis_km": 42163.86938845013,
      "eccentricity": 0.00065068,
      "inclination_deg": 3.2682,
      "raan_deg": 96.3536,
      "arg_perigee_deg": 338.8653,
      "mean_anomaly_deg": 202.5031,
      "mean_motion_rev_day": 1.00274862
    },
    {
      "epoch": "2026-04-27T04:29:51.662400Z",
      "apogee_km": 35813.28086699333,
      "perigee_km": 35758.17269703023,
      "latitude_deg": -3.1997019120007772,
      "longitude_deg": 73.48422214966612,
      "height_km": 35780.40380044363,
      "semi_major_axis_km": 42163.86378201178,
      "eccentricity": 0.0006535,
      "inclination_deg": 3.2688,
      "raan_deg": 96.3483,
      "arg_perigee_deg": 339.0151,
      "mean_anomaly_deg": 280.8505,
      "mean_motion_rev_day": 1.00274882
    },
    {
      "epoch": "2026-04-28T17:15:21.060000Z",
      "apogee_km": 35813.80496109549,
      "perigee_km": 35757.51629126453,
      "latitude_deg": 3.2502700679271754,
      "longitude_deg": 73.66311252699556,
      "height_km": 35796.024679946204,
      "semi_major_axis_km": 42163.797626180014,
      "eccentricity": 0.0006675,
      "inclination_deg": 3.2726,
      "raan_deg": 96.3114,
      "arg_perigee_deg": 339.6278,
      "mean_anomaly_deg": 113.1749,
      "mean_motion_rev_day": 1.00275118
    },
    {
      "epoch": "2026-04-29T15:29:59.798400Z",
      "apogee_km": 35814.22261960619,
      "perigee_km": 35757.14124153798,
      "latitude_deg": 3.0029447438223764,
      "longitude_deg": 73.64023406652566,
      "height_km": 35783.68534887093,
      "semi_major_axis_km": 42163.81893057209,
      "eccentricity": 0.0006769,
      "inclination_deg": 3.2748,
      "raan_deg": 96.287,
      "arg_perigee_deg": 340.0653,
      "mean_anomaly_deg": 87.3462,
      "mean_motion_rev_day": 1.00275042
    },
    {
      "epoch": "2026-04-30T15:27:28.669248Z",
      "apogee_km": 35814.52348956446,
      "perigee_km": 35756.742259328516,
      "latitude_deg": 3.013301201787168,
      "longitude_deg": 73.65241069830682,
      "height_km": 35783.63586717728,
      "semi_major_axis_km": 42163.769874446494,
      "eccentricity": 0.0006852,
      "inclination_deg": 3.2772,
      "raan_deg": 96.2636,
      "arg_perigee_deg": 340.426,
      "mean_anomaly_deg": 87.3757,
      "mean_motion_rev_day": 1.00275217
    },
    {
      "epoch": "2026-05-01T22:15:33.591168Z",
      "apogee_km": 35814.853709815536,
      "perigee_km": 35756.336352678656,
      "latitude_deg": 0.5053267957805315,
      "longitude_deg": 73.62263536125535,
      "height_km": 35813.84655656327,
      "semi_major_axis_km": 42163.7320312471,
      "eccentricity": 0.00069393,
      "inclination_deg": 3.2802,
      "raan_deg": 96.233,
      "arg_perigee_deg": 341.001,
      "mean_anomaly_deg": 190.1335,
      "mean_motion_rev_day": 1.00275352
    },
    {
      "epoch": "2026-05-03T18:55:35.806368Z",
      "apogee_km": 35815.345013751845,
      "perigee_km": 35755.75086146103,
      "latitude_deg": 2.732320663231843,
      "longitude_deg": 73.73953309824057,
      "height_km": 35808.02321103764,
      "semi_major_axis_km": 42163.684937606435,
      "eccentricity": 0.0007067,
      "inclination_deg": 3.2845,
      "raan_deg": 96.1898,
      "arg_perigee_deg": 342.0693,
      "mean_anomaly_deg": 140.977,
      "mean_motion_rev_day": 1.0027552
    }
  ]
}